1 50832U 22001AF  26195.68799416  .00011841  00000-0  74086-3 0  9999
2 50832  53.1735 328.7196 0001051   5.2593 354.8410 15.09817060249446
1 50834U 22001AH  26196.16670139  .00079007  00000-0  24707-2 0  9997
2 50834  53.1599 324.3862 0001451  39.9788 123.6629 15.32470917  5831
1 50835U 22001AJ  26195.68338435  .00009878  00000-0  59433-3 0  9998
2 50835  53.2170 328.3991 0000394  46.9673 313.1353 15.11430661249447
1 50836U 22001AK  26195.71014597 -.00000880  00000-0 -16604-4 0  9993
2 50836  53.1597 325.3859 0001237  70.4617 289.6518 15.31697802249384
1 50837U 22001AL  26196.16670139  .00076763  00000-0  32589-2 0  9993
2 50837  53.1592 315.9848 0001917  75.3046 176.8085 15.22417195  5839
1 50839U 22001AN  26195.62157403  .00003744  00000-0  13235-3 0  9996
2 50839  53.1616 325.7800 0001220 107.4102 252.7033 15.31698701249462
1 50840U 22001AP  26196.00002315 -.00027310  00000-0 -82162-3 0  9994
2 50840  53.1593 325.0687 0000717  74.6133  53.9320 15.33565855  5615
1 50841U 22001AQ  26196.00002315 -.00027114  00000-0 -81565-3 0  9993
2 50841  53.1592 324.9680 0000923  85.1599  35.1923 15.33565531  5609
1 50842U 22001AR  26195.68218263  .00000669  00000-0  33340-4 0  9991
2 50842  53.1609 325.5271 0001253  41.6984 318.4113 15.31690548249472
1 50844U 22001AT  26196.00002315 -.00027175  00000-0 -84272-3 0  9991
2 50844  53.1612 325.0729 0001004  57.1403 148.2532 15.32605750  5817
1 50845U 22001AU  26195.63274676  .00000175  00000-0  18377-4 0  9994
2 50845  53.1608 326.2747 0000912  71.3208 288.7891 15.29355127249470
1 50846U 22001AV  26195.60293227  .00000673  00000-0  33439-4 0  9994
2 50846  53.1625 325.8971 0001029  78.0294 282.0823 15.31703300249478
1 50848U 22001AX  26196.16670139  .00077769  00000-0  25900-2 0  9991
2 50848  53.1607 325.0566 0000783  99.9463 316.8285 15.30455064  5836
1 50849U 22001AY  26196.00002315 -.00031163  00000-0 -91495-3 0  9993
2 50849  53.1610 324.9087 0001030  65.8424 204.1189 15.34401679  5718
1 50850U 22001AZ  26196.00002315  .00000208  00000-0  22937-4 0  9995
2 50850  53.1598 285.8619 0001136  61.0021  60.0031 15.22530086  5761
1 50851U 22001BA  26196.00002315 -.00033380  00000-0 -10076-2 0  9994
2 50851  53.1604 324.9919 0001135  72.8035 234.3055 15.33565984  5817
1 50993U 22002K   26196.15055823  .00002832  00000-0  97944-4 0  9997
2 50993  97.2819 253.2862 0005702 247.1919 112.8720 15.30707792249578
1 51053U 22002BX  26196.18333921  .00059392  00000-0  39799-3 0  9992
2 51053  97.2810 278.4315 0004604 192.7728 167.3421 15.75078606251314
1 51060U 22002CE  26196.19627716  .00006576  00000-0  16027-3 0  9994
2 51060  97.2866 262.4293 0003923 225.4853 134.6074 15.41234549250152
1 51061U 22002CF  26196.17368041  .00020095  00000-0  37401-3 0  9997
2 51061  97.2989 270.1186 0005364 203.6067 156.4939 15.48881766250587
1 51102U 22004A   26196.23645635  .00001797  00000-0  12219-3 0  9997
2 51102  98.4559 214.8918 0604966 109.9796 256.7558 14.20521447231279
1 51104U 22005A   26195.96894089  .00011068  00000-0  68751-3 0  9992
2 51104  53.1922  77.4310 0001246 118.1309 241.9809 15.10146568248096
1 51105U 22005B   26196.09342507 -.00000653  00000-0 -22956-4 0  9999
2 51105  53.1602  76.9223 0001291  94.6490 265.4649 15.08832090248113
1 51106U 22005C   26196.00506816 -.00033242  00000-0 -20709-2 0  9998
2 51106  53.1607  77.3178 0000718  71.4823 288.6246 15.09002864248095
1 51108U 22005E   26195.95726333 -.00000316  00000-0 -17798-5 0  9994
2 51108  53.1604  77.5333 0001424  90.8705 269.2450 15.08833301248097
1 51109U 22005F   26196.16670139  .00028911  00000-0  17379-2 0  9992
2 51109  53.1593  76.5048 0001372  89.3849 249.6307 15.10667878  5687
1 51110U 22005G   26195.94621891 -.00000085  00000-0  12769-4 0  9993
2 51110  53.1604  77.5600 0001805  96.4916 263.6281 15.08836864248093
1 51111U 22005H   26196.05662505 -.00001235  00000-0 -59463-4 0  9995
2 51111  53.1598  77.0857 0001657 108.8738 251.2434 15.08844680248100
1 51112U 22005J   26195.94349359  .00000728  00000-0  63841-4 0  9991
2 51112  53.1609  77.5664 0001394  87.3060 272.8091 15.08834287248090
1 51113U 22005K   26195.93518103  .00000560  00000-0  53298-4 0  9995
2 51113  53.1603  77.6314 0001338  87.9150 272.1994 15.08837891248080
1 51114U 22005L   26196.16670139  .00072884  00000-0  38219-2 0  9992
2 51114  53.1604  76.5127 0001338  69.3917  51.5771 15.15121707  5833
1 51115U 22005M   26195.99406155  .00000704  00000-0  62318-4 0  9999
2 51115  53.1599  77.3676 0001443  95.6139 264.5017 15.08838921248091
1 51116U 22005N   26196.20381861  .00000809  00000-0  68955-4 0  9990
2 51116  53.1603  76.4240 0001457  88.9012 271.2146 15.08837354248126
1 51117U 22005P   26195.96829568 -.00000498  00000-0 -13194-4 0  9995
2 51117  53.1597  77.3719 0001743  91.5559 268.5633 15.08833768248095
1 51118U 22005Q   26196.06398546  .00000115  00000-0  25297-4 0  9996
2 51118  53.1603  77.0523 0001550  96.0183 264.0985 15.08837220248103
1 51120U 22005S   26195.96926604 -.00000511  00000-0 -13990-4 0  9998
2 51120  53.1599  77.4881 0001512  89.7083 270.4081 15.08829377248097
1 51121U 22005T   26196.05022523  .00000495  00000-0  49182-4 0  9998
2 51121  53.1594  77.1226 0001275  96.0821 264.0316 15.08833020248102
1 51123U 22005V   26196.09710556  .00000676  00000-0  60588-4 0  9998
2 51123  53.1612  76.9052 0001492 101.1418 258.9741 15.08821440248118
1 51124U 22005W   26196.00786475  .00000572  00000-0  54072-4 0  9999
2 51124  53.1599  87.3034 0001537  93.5485 266.5682 15.08833744247968
1 51125U 22005X   26196.16670139  .00089944  00000-0  31109-2 0  9990
2 51125  53.1591  85.0572 0001439  85.3802 191.2334 15.29154162  5835
1 51126U 22005Y   26195.96803503  .00000802  00000-0  37595-4 0  9994
2 51126  53.1616  84.3067 0001243  85.9581 274.1562 15.31707971248005
1 51127U 22005Z   26196.08454291  .00000812  00000-0  37933-4 0  9992
2 51127  53.1612  83.6541 0001607  91.4509 268.6676 15.31703762248016
1 51128U 22005AA  26195.98210639 -.00000860  00000-0 -35932-4 0  9999
2 51128  53.1607  87.4222 0001536  88.9719 271.1449 15.08833955247944
1 51129U 22005AB  26196.14130082  .00000417  00000-0  44290-4 0  9995
2 51129  53.1599  86.7040 0001424  92.9675 267.1479 15.08835355247974
1 51130U 22005AC  26195.99314672 -.00003230  00000-0 -18493-3 0  9991
2 51130  53.1602  87.3712 0001394  94.4944 265.6206 15.08834227247941
1 51131U 22005AD  26196.07056058  .00000466  00000-0  26774-4 0  9991
2 51131  53.1602  83.7238 0001201  99.0746 261.0391 15.31699533248001
1 51132U 22005AE  26196.05570373 -.00000230  00000-0  36569-5 0  9995
2 51132  53.1601  87.0899 0001531  91.5315 268.5852 15.08832282247957
1 51133U 22005AF  26195.95955310  .00011034  00000-0  37708-3 0  9999
2 51133  53.1620  85.2279 0000844 113.8860 246.2229 15.30801303247978
1 51135U 22005AH  26196.16670139  .00087616  00000-0  30474-2 0  9999
2 51135  53.1588  84.7528 0002013  46.8252 147.9340 15.28984950  5840
1 51136U 22005AJ  26196.16670139  .00376393  00000-0  10358-1 0  9991
2 51136  53.1726  84.3334 0001222  73.0590 330.0005 15.35136757  5636
1 51137U 22005AK  26196.16670139  .00098579  00000-0  28603-2 0  9992
2 51137  53.1604  84.3015 0001755  60.0719  63.9786 15.34732386  5837
1 51138U 22005AL  26196.02451321  .00009763  00000-0  61332-3 0  9992
2 51138  53.1717  87.1464 0001602 104.7112 255.4058 15.09863753247952
1 51139U 22005AM  26196.07287253  .00000452  00000-0  25082-4 0  9998
2 51139  53.1601  84.7471 0001196  91.6336 268.4803 15.33547940248009
1 51140U 22005AN  26196.11716527  .00000600  00000-0  31104-4 0  9993
2 51140  53.1612  83.5006 0001108  91.4973 268.6155 15.31705796248029
1 51141U 22005AP  26196.16670139  .00100709  00000-0  29056-2 0  9999
2 51141  53.1589  84.3128 0001726  77.9700 120.7631 15.34898556  5635
1 51142U 22005AQ  26196.05405343  .00019978  00000-0  76807-3 0  9995
2 51142  53.2178  57.5954 0002418 226.6428 133.4370 15.26426733248386
1 51143U 22005AR  26195.95637687  .00000991  00000-0  40494-4 0  9991
2 51143  53.1610  93.5812 0001686  88.8427 271.2769 15.34389346247865
1 51144U 22005AS  26195.97269764  .00004547  00000-0  15817-3 0  9992
2 51144  53.1606  84.1816 0001037 106.0390 254.0726 15.31701227248005
1 51146U 22005AU  26195.99205889  .00000182  00000-0  16883-4 0  9990
2 51146  53.1611  84.9174 0001476  90.7854 269.3317 15.33551034247981
1 51147U 22005AV  26196.02404843  .00024626  00000-0  76001-3 0  9993
2 51147  53.1889  66.5219 0002074  62.7077 297.4137 15.33449580248251
1 51148U 22005AW  26196.08618574  .00013771  00000-0  75253-3 0  9995
2 51148  53.2157  94.7260 0002633  98.5469 261.5824 15.14580778247868
1 51149U 22005AX  26196.09709198  .00000578  00000-0  28254-4 0  9991
2 51149  53.1600  92.4512 0001016  95.7115 264.4003 15.34389390247890
1 51150U 22005AY  26195.99608926  .00023787  00000-0  10572-2 0  9997
2 51150  53.1618  85.8033 0001301  79.4227 280.6916 15.21425459247981
1 51152U 22005BA  26196.16670139  .00053861  00000-0  16387-2 0  9990
2 51152  53.1591  94.1628 0001249  78.7175   4.5925 15.33521792  5739
1 51284U 22007A   26196.21475598  .00000282  00000-0  36297-4 0  9999
2 51284  97.8106 203.2368 0001629  91.2302 268.9102 14.88419739242642
1 51444U 22008A   26196.16947780 -.00000401  00000-0 -43878-4 0  9997
2 51444  97.8885  19.3617 0001534  84.7121 275.4267 14.82148577240734
1 51461U 22010F   26196.08330512  .00000154  00000-0  27791-4 0  9998
2 51461  53.1602  66.9648 0001476  96.4593 263.6566 15.08833894246059
1 51462U 22010G   26195.94888937  .00000293  00000-0  21209-4 0  9994
2 51462  53.1616  63.3874 0001319  83.1874 276.9277 15.31698945246090
1 51463U 22010H   26195.95359390 -.00000030  00000-0  10784-4 0  9998
2 51463  53.1605  63.6958 0001230  82.2624 277.8517 15.31696381245784
1 51464U 22010J   26195.93978833  .00000095  00000-0  24120-4 0  9995
2 51464  53.1606  67.6132 0002191 100.6268 259.4970 15.08830508246538
